<?xml version="1.0" encoding="UTF-8"?>
<seiscomp xmlns="http://geofon.gfz-potsdam.de/ns/seiscomp3-schema/0.11" version="0.11">
  <EventParameters>
    <pick publicID="20201006.125441.89-CM.PTB.00.HHN">
      <time>
        <value>2020-10-06T12:54:41.898394Z</value>
      </time>
      <waveformID networkCode="CM" stationCode="PTB" locationCode="00" channelCode="HHN"/>
      <filterID>RMHP(10)&gt;&gt;ITAPER(30)&gt;&gt;BW(4,2.00,8.00)&gt;&gt;STALTA(0.10,5.70)</filterID>
      <methodID>Trigger</methodID>
      <phaseHint>P</phaseHint>
      <evaluationMode>automatic</evaluationMode>
      <creationInfo>
        <agencyID>SGC</agencyID>
        <author>bdrsn</author>
        <creationTime>2021-07-21T21:42:04.175682Z</creationTime>
      </creationInfo>
    </pick>
    <amplitude publicID="20201006.125441.89-CM.PTB.00.HHN.snr">
      <type>snr</type>
      <amplitude>
        <value>7.167694015</value>
      </amplitude>
      <timeWindow>
        <reference>2020-10-06T12:54:42.048393Z</reference>
        <begin>-0.03</begin>
        <end>9.97</end>
      </timeWindow>
      <pickID>20201006.125441.89-CM.PTB.00.HHN</pickID>
      <waveformID networkCode="CM" stationCode="PTB" locationCode="00" channelCode="HHN"/>
      <creationInfo>
        <agencyID>SGC</agencyID>
        <author>bdrsn</author>
        <creationTime>2021-07-21T21:42:04.177241Z</creationTime>
      </creationInfo>
    </amplitude>
    <amplitude publicID="20201006.125441.89-CM.PTB.00.HHN.mb">
      <type>mb</type>
      <amplitude>
        <value>10.20376899</value>
      </amplitude>
      <timeWindow>
        <reference>2020-10-06T12:54:46.458393Z</reference>
        <begin>-9.56</begin>
        <end>25.44</end>
      </timeWindow>
      <period>
        <value>0.5125</value>
      </period>
      <snr>4.024370066</snr>
      <pickID>20201006.125441.89-CM.PTB.00.HHN</pickID>
      <waveformID networkCode="CM" stationCode="PTB" locationCode="00" channelCode="HHN"/>
      <creationInfo>
        <agencyID>SGC</agencyID>
        <author>bdrsn</author>
        <creationTime>2021-07-21T21:42:04.185955Z</creationTime>
      </creationInfo>
    </amplitude>
    <amplitude publicID="20201006.125441.89-CM.PTB.00.HHN.mB">
      <type>mB</type>
      <amplitude>
        <value>1084.795442</value>
      </amplitude>
      <timeWindow>
        <reference>2020-10-06T12:55:40.598393Z</reference>
        <begin>-63.7</begin>
        <end>1.3</end>
      </timeWindow>
      <snr>3.855633872</snr>
      <pickID>20201006.125441.89-CM.PTB.00.HHN</pickID>
      <waveformID networkCode="CM" stationCode="PTB" locationCode="00" channelCode="HHN"/>
      <creationInfo>
        <agencyID>SGC</agencyID>
        <author>bdrsn</author>
        <creationTime>2021-07-21T21:42:04.189922Z</creationTime>
      </creationInfo>
    </amplitude>
    <amplitude publicID="20201006.125441.89-CM.PTB.00.HHN.MLv">
      <type>MLv</type>
      <amplitude>
        <value>0.06466237821</value>
      </amplitude>
      <timeWindow>
        <reference>2020-10-06T12:54:46.348393Z</reference>
        <begin>-9.45</begin>
        <end>145.55</end>
      </timeWindow>
      <snr>4.793043631</snr>
      <pickID>20201006.125441.89-CM.PTB.00.HHN</pickID>
      <waveformID networkCode="CM" stationCode="PTB" locationCode="00" channelCode="HHN"/>
      <creationInfo>
        <agencyID>SGC</agencyID>
        <author>bdrsn</author>
        <creationTime>2021-07-21T21:42:04.195384Z</creationTime>
      </creationInfo>
    </amplitude>
  </EventParameters>
</seiscomp>
